#aV2023  3  7  0  0  0.00000000     288 DD+AD WGS84 FIT  NGA
## 2252 172800.00000000   300.00000000 60010 0.0000000000000
+   32     1  2  3  4  5  6  7  8  9 10 11 12 13 14 15 16 17
+         18 19 20 21 22 23 24 25 26 27 28 29 30 31 32  0  0
+          0  0  0  0  0  0  0  0  0  0  0  0  0  0  0  0  0
+          0  0  0  0  0  0  0  0  0  0  0  0  0  0  0  0  0
+          0  0  0  0  0  0  0  0  0  0  0  0  0  0  0  0  0
++         2  2  2  2  2  2  2  2  2  2  2  2  2  2  2  2  2
++         2  2  2  2  2  2  2  2  2  2  2  2  2  2  2  0  0
++         0  0  0  0  0  0  0  0  0  0  0  0  0  0  0  0  0
++         0  0  0  0  0  0  0  0  0  0  0  0  0  0  0  0  0
++         0  0  0  0  0  0  0  0  0  0  0  0  0  0  0  0  0
%c cc cc ccc ccc cccc cccc cccc cccc ccccc ccccc ccccc ccccc
%c cc cc ccc ccc cccc cccc cccc cccc ccccc ccccc ccccc ccccc
%f  0.0000000  0.000000000  0.00000000000  0.000000000000000
%f  0.0000000  0.000000000  0.00000000000  0.000000000000000
%i    0    0    0    0      0      0      0      0         0
%i    0    0    0    0      0      0      0      0         0
/*      NGA, ST. LOUIS,MO.                                  
/*   EPHEMERIS COMPUTED FROM 2 DAYS OF DATA                 
/*   EPOCHA v8 SMOOTHER                                     
/*   G2139 IERS2010 SATIGS SATAPC                           
*  2023  3  7 11 10  0.00000000
P  1 -21179.053840 -13054.172088   9467.816749    205.265038                    
V  1  -7457.751169  -9950.189857 -29068.715944     -0.039061                    
P  2  21980.851456   8453.460344 -11417.746852   -616.101571                    
V  2  10136.970395  12055.004266  27218.162998      0.027525                    
P  3 -14040.116271  -4724.833118  21925.237192   -353.744417                    
V  3   7397.129101 -27090.684758   -982.310828      0.059041                    
P  4 -24668.784788  -1449.737756   9894.979892    -12.558341                    
V  4  11674.993574  -5087.220378  28277.560090      0.085600                    
P  5   7091.900766  19866.814473 -16233.906581   -118.527721                    
V  5  -6237.454018  19448.363150  21413.457329     -0.014603                    
P  6  -2033.150439  17034.450936  20314.712474    579.244108                    
V  6 -18476.692819 -17738.031307  13160.570488      0.033107                    
P  7 -18839.075934   -305.305271 -18469.854216    227.959905                    
V  7 -16004.402543 -18249.269914  15761.434189     -0.075662                    
P  8 -16867.332396  -8769.238509 -18768.696218   -111.775284                    
V  8  22282.326266  -7777.739055 -16058.434935     -0.018183                    
P  9 -25459.315829   7645.849528   -452.863894   -205.356044                    
V  9  -1278.678676  -2685.855717  31611.608853      0.073799                    
P 10  11182.941444 -22734.145194  -7244.427411    -27.548302                    
V 10    -99.150741   9809.096268 -30502.333266     -0.015678                    
P 11   9888.359934  22198.939698  10768.970783   -123.235392                    
V 11 -10826.533278  -8612.907369  27690.117893     -0.110596                    
P 12  13059.308063   7745.864887  21517.962655   -348.571400                    
V 12  -9474.338751  26319.803125  -3582.023194     -0.046076                    
P 13   9108.151628  13518.378607 -21183.040157    486.757329                    
V 13 -26160.753877   3757.999458  -8732.062095      0.058438                    
P 14 -13527.713822  20668.792218  -9574.566240    -10.311067                    
V 14    756.333636 -12560.321180 -28295.344131      0.098812                    
P 15  18076.520202   7387.371754 -18570.512094     19.418820                    
V 15 -20284.677113  10253.360278 -15789.269373      0.033711                    
P 16  -3023.168808 -21706.986031 -14969.238819   -516.744140                    
V 16   8499.650117 -16748.867717  23489.899166      0.020509                    
P 17 -18905.947994  13210.129465  13692.397185    704.103627                    
V 17 -16609.790790   1608.834221 -25189.592649      0.022092                    
P 18  16041.278621  -3759.638788 -20861.669051   -169.294932                    
V 18  17774.029546  19562.487717  10000.222693     -0.162210                    
P 19  -9458.892736  14867.847808  19553.457873    286.797566                    
V 19 -25277.654536   2593.687996 -14304.956485      0.051028                    
P 20   2030.980768  25812.805999  -6354.088402    446.524821                    
V 20  -3736.216169   7750.355483  29923.443681     -0.023297                    
P 21 -21357.672006 -16503.712656   1768.423849    154.277650                    
V 21    185.939087  -2534.462035 -31133.883315      0.001142                    
P 22   5386.233616 -15826.349277  21042.615970    440.535339                    
V 22  25502.957323  -3665.196780  -9650.870323      0.074225                    
P 23  15145.281631 -13710.852545 -16888.014433      9.353805                    
V 23  -3418.004867  21274.501290 -20470.875213      0.019677                    
P 24  22102.569245  14320.772912   4524.935655   -101.863658                    
V 24   2575.872672   6449.330401 -30190.743158     -0.154795                    
P 25  16013.782585  -3841.908919  20469.849814    425.729188                    
V 25  -5680.144072  26207.877604   9490.888112      0.031059                    
P 26   3856.678329 -26029.838732  -1879.188033    241.903242                    
V 26   4315.012552  -1456.707984  31251.623438      0.001410                    
P 27  -5348.580196 -14236.529954 -22028.661757     86.537406                    
V 27  26442.552838  -7010.037065  -1500.440064     -0.085741                    
P 28   3574.412276 -16339.846925  20601.980031     36.075463                    
V 28  19748.498404  17279.989702  10257.473189      0.113582                    
P 29  26290.716813  -3003.806886   2685.903629   -589.658111                    
V 29  -3001.589955   2793.560760  31834.463279     -0.018471                    
P 30  -9956.886472  12226.849642 -21261.159760   -527.849671                    
V 30 -19342.210490 -19328.439376  -2308.806417      0.014817                    
P 31    249.227324 -18735.402285  18483.436444   -211.008699                    
V 31  17850.696117  16135.976493  16404.974357     -0.009262                    
P 32  15635.173242 -15263.695019  15130.083583   -416.411450                    
V 32  18885.917675  -2947.195254 -22942.871212     -0.110717                    
EOF
